XRISM                   
1 57800U 23137A   24158.45635466  .00006997  00000+0  52736-3 0  9991
2 57800  31.0036  80.9152 0009263 102.0588 258.1086 15.01087149 40992
